IRIDIUM 64 [+]          
1 25287U 98021C   17106.89986498  .00000100  00000-0  28517-4 0  9998
2 25287  86.3956 249.5411 0002321  93.2724 266.8737 14.34213230995931
IRIDIUM 65 [+]          
1 25288U 98021D   17106.90621162  .00000103  00000-0  29769-4 0  9998
2 25288  86.3955 249.4430 0002175  99.7370 260.4071 14.34213189995952
IRIDIUM 66 [+]          
1 25289U 98021E   17106.49393656  .00000095  00000-0  26905-4 0  9996
2 25289  86.3954 249.5193 0002096  97.3920 262.7514 14.34213245996160
IRIDIUM 67 [+]          
1 25290U 98021F   17106.91889503  .00000095  00000-0  26778-4 0  9994
2 25290  86.3955 249.4770 0002154  96.0751 264.0690 14.34213124995969
IRIDIUM 68 [+]          
1 25291U 98021G   17106.92521085  .00000101  00000-0  28888-4 0  9996
2 25291  86.3957 249.5919 0002221  95.9440 264.2009 14.34213435995934
IRIDIUM 69 [-]          
1 25319U 98026A   17106.90509348  .00000109  00000-0  28907-4 0  9998
2 25319  86.3959 271.4827 0003959 103.1169 257.0471 14.38661118993972
IRIDIUM 71 [-]          
1 25320U 98026B   17106.91302588  .00000124  00000-0  33653-4 0  9999
2 25320  86.3945 267.3962 0002871 137.8109 222.3311 14.39075269994395
IRIDIUM 70 [+]          
1 25342U 98032A   17106.90233676  .00000017  00000-0 -11011-5 0  9997
2 25342  86.3956 249.8409 0001961  95.4255  15.6979 14.34213469990033
IRIDIUM 72 [+]          
1 25343U 98032B   17106.79836291  .00000090  00000-0  25186-4 0  9994
2 25343  86.3955 249.4998 0002150  96.9091 263.2350 14.34213681990026
IRIDIUM 73 [-]          
1 25344U 98032C   17106.89059364  .00000145  00000-0  32774-4 0  9996
2 25344  86.4457 228.8146 0001583  97.2913 262.8471 14.49025083998397
IRIDIUM 74 [S]          
1 25345U 98032D   17106.91610019  .00000103  00000-0  24942-4 0  9992
2 25345  86.4470 249.8699 0005110 219.0178 252.9630 14.42440894993628
IRIDIUM 75 [+]          
1 25346U 98032E   17106.94423710  .00000094  00000-0  26601-4 0  9999
2 25346  86.3957 249.6889 0002149  96.2342 263.9099 14.34213844990626
IRIDIUM 3 [+]           
1 25431U 98048A   17106.58852833 -.00000045  00000-0 -23175-4 0  9994
2 25431  86.3917 281.4500 0001963  92.7798 312.9556 14.34215138976513
IRIDIUM 76 [+]          
1 25432U 98048B   17106.90849928 -.00000039  00000-0 -20923-4 0  9993
2 25432  86.3914 281.0720 0001893  87.6128  70.9328 14.34214636976816
IRIDIUM 82 [+]          
1 25467U 98051A   17106.91705619  .00000203  00000-0  65476-4 0  9997
2 25467  86.3984  47.7456 0002754  90.5888 269.5624 14.34234061977839
IRIDIUM 81 [+]          
1 25468U 98051B   17106.91064295  .00000171  00000-0  54010-4 0  9992
2 25468  86.3987  47.3918 0002292  81.2329 278.9126 14.34215024974023
IRIDIUM 80 [+]          
1 25469U 98051C   17106.90358177  .00000167  00000-0  52447-4 0  9994
2 25469  86.3991  47.6797 0002304  80.3705 342.0503 14.34221163974022
IRIDIUM 77 [+]          
1 25471U 98051E   17106.91061057  .00000177  00000-0  56299-4 0  9996
2 25471  86.3983  47.2494 0002143  84.0026 341.9778 14.34221178978992
IRIDIUM 2 [-]           
1 25527U 98066A   17106.88638550  .00001468  00000-0  73723-4 0  9993
2 25527  85.5300  68.4286 0007850 330.5370  29.5426 15.16365457  9076
IRIDIUM 86 [+]          
1 25528U 98066B   17106.85642980  .00000196  00000-0  63030-4 0  9990
2 25528  86.3999  15.4442 0002084  88.0060 272.1375 14.34223108970331
IRIDIUM 84 [+]          
1 25530U 98066D   17106.88813579  .00000195  00000-0  62737-4 0  9992
2 25530  86.4001  15.5947 0002135  82.3745 277.7693 14.34222720968143
IRIDIUM 83 [+]          
1 25531U 98066E   17106.85008771  .00000197  00000-0  63394-4 0  9992
2 25531  86.4003  15.7333 0002199  82.8390 277.3056 14.34223120965273
IRIDIUM 20 [+]          
1 25577U 98074A   17106.83974320 -.00000047  00000-0 -23786-4 0  9998
2 25577  86.3913 281.0228 0002038  90.4582 269.6847 14.34214553145039
IRIDIUM 11 [+]          
1 25578U 98074B   17106.87514862  .00000017  00000-0 -10392-5 0  9990
2 25578  86.3912 281.2101 0002136  90.8115  26.4298 14.34213500968602
IRIDIUM 14 [+]          
1 25777U 99032A   17106.89352860  .00000092  00000-0  25692-4 0  9996
2 25777  86.3956 249.5417 0002117 100.1794 259.9641 14.34213032945818
IRIDIUM 21 [+]          
1 25778U 99032B   17106.93155544  .00000098  00000-0  27756-4 0  9991
2 25778  86.3956 249.5455 0002081  92.2047 267.9388 14.34213950939250
IRIDIUM 91 [+]          
1 27372U 02005A   17106.69931090 -.00000037  00000-0 -20265-4 0  9991
2 27372  86.3934 312.8855 0001517  85.9358 317.5051 14.34218727802764
IRIDIUM 90 [S]          
1 27373U 02005B   17106.88866544  .00000221  00000-0  60064-4 0  9998
2 27373  86.4514  15.6998 0002081  85.0427 275.1011 14.42957758802444
IRIDIUM 94 [+]          
1 27374U 02005C   17106.89359464 -.00000069  00000-0 -31633-4 0  9990
2 27374  86.3914 281.3310 0001307  91.9651  22.4025 14.34213853807134
IRIDIUM 95 [+]          
1 27375U 02005D   17106.65920664 -.00000030  00000-0 -17718-4 0  9997
2 27375  86.3702 313.0269 0001911  84.7961 275.3453 14.34217972802068
IRIDIUM 96 [+]          
1 27376U 02005E   17106.77688756  .00000088  00000-0  24538-4 0  9993
2 27376  86.4007 344.8819 0002144  51.8640 308.2749 14.34220180207977
IRIDIUM 97 [+]          
1 27450U 02031A   17106.88471246  .00000126  00000-0  37769-4 0  9994
2 27450  86.3976 344.5356 0002342  84.3122 275.8341 14.34219613781392
IRIDIUM 98 [+]          
1 27451U 02031B   17106.94556853  .00000167  00000-0  50847-4 0  9997
2 27451  86.3982  47.7990 0002385  83.8617 344.1033 14.35761528782506
